start=new Date('2023-05-24T00:00:00.000Z').valueOf();
sats=[{"MEAN_ANOMALY":"264.0629","ARG_OF_PERICENTER":"96.0489","FILE":"3915766","DECAY_DATE":null,"MEAN_ELEMENT_THEORY":"SGP4","MEAN_MOTION_DOT":"0.00000220","REF_FRAME":"TEME","MEAN_MOTION":"15.08835584","NORAD_CAT_ID":"50160","PERIOD":"95.438","EPHEMERIS_TYPE":"0","COUNTRY_CODE":"US","RCS_SIZE":"LARGE","OBJECT_TYPE":"PAYLOAD","CLASSIFICATION_TYPE":"U","OBJECT_NAME":"STARLINK-3288","PERIAPSIS":"538.991","ECCENTRICITY":"0.00011100","SEMIMAJOR_AXIS":"6917.894","TLE_LINE2":"2 50160  53.2157 162.3244 0001110  96.0489 264.0629 15.08835584 82330","CENTER_NAME":"EARTH","SITE":"AFWTR","APOAPSIS":"540.527","RA_OF_ASC_NODE":"162.3244","TLE_LINE1":"1 50160U 21125E   23143.74357976  .00000220  00000-0  31880-4 0  9992","LAUNCH_DATE":"2021-12-18","INCLINATION":"53.2157","REV_AT_EPOCH":"8233","OBJECT_ID":"2021-125E","EPOCH":"2023-05-23T17:50:45.291264","ELEMENT_SET_NO":"999","TIME_SYSTEM":"UTC","MEAN_MOTION_DDOT":"0.0000000000000","BSTAR":"0.00003188000000","GP_ID":"232402485"},{"MEAN_MOTION_DDOT":"0.0000000000000","BSTAR":"-0.00001833200000","GP_ID":"232402735","INCLINATION":"53.2159","OBJECT_ID":"2021-125F","REV_AT_EPOCH":"8232","EPOCH":"2023-05-23T17:56:03.111936","ELEMENT_SET_NO":"999","TIME_SYSTEM":"UTC","TLE_LINE1":"1 50161U 21125F   23143.74725824 -.00000579  00000-0 -18332-4 0  9990","LAUNCH_DATE":"2021-12-18","TLE_LINE2":"2 50161  53.2159 162.3061 0000895  96.9568 263.1526 15.08842634 82325","CENTER_NAME":"EARTH","APOAPSIS":"540.356","SITE":"AFWTR","RA_OF_ASC_NODE":"162.3061","OBJECT_NAME":"STARLINK-3304","PERIAPSIS":"539.118","ECCENTRICITY":"0.00008950","SEMIMAJOR_AXIS":"6917.872","PERIOD":"95.437","NORAD_CAT_ID":"50161","EPHEMERIS_TYPE":"0","OBJECT_TYPE":"PAYLOAD","COUNTRY_CODE":"US","RCS_SIZE":"LARGE","CLASSIFICATION_TYPE":"U","FILE":"3915766","DECAY_DATE":null,"MEAN_ELEMENT_THEORY":"SGP4","MEAN_MOTION_DOT":"-0.00000579","MEAN_MOTION":"15.08842634","REF_FRAME":"TEME","MEAN_ANOMALY":"263.1526","ARG_OF_PERICENTER":"96.9568"},{"MEAN_ANOMALY":"183.2294","ARG_OF_PERICENTER":"176.8738","FILE":"3915766","REF_FRAME":"TEME","MEAN_MOTION_DOT":"0.00060795","MEAN_MOTION":"15.68421969","DECAY_DATE":null,"MEAN_ELEMENT_THEORY":"SGP4","EPHEMERIS_TYPE":"0","NORAD_CAT_ID":"50162","PERIOD":"91.812","COUNTRY_CODE":"US","RCS_SIZE":"LARGE","OBJECT_TYPE":"PAYLOAD","CLASSIFICATION_TYPE":"U","ECCENTRICITY":"0.00021450","OBJECT_NAME":"STARLINK-3303","PERIAPSIS":"361.971","SEMIMAJOR_AXIS":"6741.552","SITE":"AFWTR","APOAPSIS":"364.863","TLE_LINE2":"2 50162  53.2102 319.9532 0002145 176.8738 183.2294 15.68421969 85220","CENTER_NAME":"EARTH","RA_OF_ASC_NODE":"319.9532","TLE_LINE1":"1 50162U 21125G   23143.89540783  .00060795  00000-0  53033-3 0  9996","LAUNCH_DATE":"2021-12-18","OBJECT_ID":"2021-125G","INCLINATION":"53.2102","REV_AT_EPOCH":"8522","TIME_SYSTEM":"UTC","EPOCH":"2023-05-23T21:29:23.236512","ELEMENT_SET_NO":"999","MEAN_MOTION_DDOT":"0.0000000000000","BSTAR":"0.00053033000000","GP_ID":"232403487"},{"MEAN_ANOMALY":"264.3564","ARG_OF_PERICENTER":"95.7562","FILE":"3915766","DECAY_DATE":null,"MEAN_ELEMENT_THEORY":"SGP4","REF_FRAME":"TEME","MEAN_MOTION_DOT":"0.00000062","MEAN_MOTION":"15.08839127","NORAD_CAT_ID":"50163","PERIOD":"95.438","EPHEMERIS_TYPE":"0","CLASSIFICATION_TYPE":"U","OBJECT_TYPE":"PAYLOAD","COUNTRY_CODE":"US","RCS_SIZE":"LARGE","PERIAPSIS":"538.937","OBJECT_NAME":"STARLINK-3306","ECCENTRICITY":"0.00011720","SEMIMAJOR_AXIS":"6917.883","CENTER_NAME":"EARTH","TLE_LINE2":"2 50163  53.2159 142.3711 0001172  95.7562 264.3564 15.08839127 82606","SITE":"AFWTR","APOAPSIS":"540.559","RA_OF_ASC_NODE":"142.3711","TLE_LINE1":"1 50163U 21125H   23143.73069852  .00000062  00000-0  21997-4 0  9999","LAUNCH_DATE":"2021-12-18","INCLINATION":"53.2159","OBJECT_ID":"2021-125H","REV_AT_EPOCH":"8260","ELEMENT_SET_NO":"999","EPOCH":"2023-05-23T17:32:12.352128","TIME_SYSTEM":"UTC","MEAN_MOTION_DDOT":"0.0000000000000","GP_ID":"232403736","BSTAR":"0.00002199700000"},{"LAUNCH_DATE":"2021-12-18","TLE_LINE1":"1 50165U 21125K   23143.46758181 -.00000447  00000-0 -99804-5 0  9993","RA_OF_ASC_NODE":"163.5599","CENTER_NAME":"EARTH","TLE_LINE2":"2 50165  53.2156 163.5599 0001134  93.9235 266.1887 15.08838960 79203","SITE":"AFWTR","APOAPSIS":"540.533","GP_ID":"232375637","BSTAR":"-0.00000998040000","MEAN_MOTION_DDOT":"0.0000000000000","ELEMENT_SET_NO":"999","EPOCH":"2023-05-23T11:13:19.068384","TIME_SYSTEM":"UTC","OBJECT_ID":"2021-125K","REV_AT_EPOCH":"7920","INCLINATION":"53.2156","DECAY_DATE":null,"MEAN_ELEMENT_THEORY":"SGP4","MEAN_MOTION_DOT":"-0.00000447","MEAN_MOTION":"15.08838960","REF_FRAME":"TEME","FILE":"3915509","ARG_OF_PERICENTER":"93.9235","MEAN_ANOMALY":"266.1887","SEMIMAJOR_AXIS":"6917.884","PERIAPSIS":"538.964","OBJECT_NAME":"STARLINK-3298","ECCENTRICITY":"0.00011340","CLASSIFICATION_TYPE":"U","COUNTRY_CODE":"US","RCS_SIZE":"LARGE","OBJECT_TYPE":"PAYLOAD","PERIOD":"95.438","NORAD_CAT_ID":"50165","EPHEMERIS_TYPE":"0"},{"SEMIMAJOR_AXIS":"6917.857","OBJECT_NAME":"STARLINK-3305","PERIAPSIS":"538.895","ECCENTRICITY":"0.00011960","OBJECT_TYPE":"PAYLOAD","COUNTRY_CODE":"US","RCS_SIZE":"LARGE","CLASSIFICATION_TYPE":"U","PERIOD":"95.437","NORAD_CAT_ID":"50166","EPHEMERIS_TYPE":"0","DECAY_DATE":null,"MEAN_ELEMENT_THEORY":"SGP4","MEAN_MOTION_DOT":"0.00001270","MEAN_MOTION":"15.08847657","REF_FRAME":"TEME","FILE":"3915766","ARG_OF_PERICENTER":"93.3851","MEAN_ANOMALY":"266.7278","BSTAR":"0.00009785200000","GP_ID":"232403236","MEAN_MOTION_DDOT":"0.0000000000000","EPOCH":"2023-05-23T18:07:58.005408","ELEMENT_SET_NO":"999","TIME_SYSTEM":"UTC","REV_AT_EPOCH":"8246","INCLINATION":"53.2142","OBJECT_ID":"2021-125L","LAUNCH_DATE":"2021-12-18","TLE_LINE1":"1 50166U 21125L   23143.75553247  .00001270  00000-0  97852-4 0  9995","RA_OF_ASC_NODE":"152.2795","TLE_LINE2":"2 50166  53.2142 152.2795 0001196  93.3851 266.7278 15.08847657 82463","CENTER_NAME":"EARTH","APOAPSIS":"540.549","SITE":"AFWTR"},{"LAUNCH_DATE":"2021-12-18","TLE_LINE1":"1 50167U 21125M   23143.46118274 -.00000564  00000-0 -17334-4 0  9995","RA_OF_ASC_NODE":"163.6033","CENTER_NAME":"EARTH","TLE_LINE2":"2 50167  53.2161 163.6033 0001301  97.1063 263.0077 15.08839060 81804","APOAPSIS":"540.648","SITE":"AFWTR","GP_ID":"232376220","BSTAR":"-0.00001733400000","MEAN_MOTION_DDOT":"0.0000000000000","ELEMENT_SET_NO":"999","EPOCH":"2023-05-23T11:04:06.188736","TIME_SYSTEM":"UTC","REV_AT_EPOCH":"8180","OBJECT_ID":"2021-125M","INCLINATION":"53.2161","DECAY_DATE":null,"MEAN_ELEMENT_THEORY":"SGP4","REF_FRAME":"TEME","MEAN_MOTION_DOT":"-0.00000564","MEAN_MOTION":"15.08839060","FILE":"3915514","ARG_OF_PERICENTER":"97.1063","MEAN_ANOMALY":"263.0077","SEMIMAJOR_AXIS":"6917.883","PERIAPSIS":"538.848","OBJECT_NAME":"STARLINK-3271","ECCENTRICITY":"0.00013010","CLASSIFICATION_TYPE":"U","OBJECT_TYPE":"PAYLOAD","COUNTRY_CODE":"US","RCS_SIZE":"LARGE","NORAD_CAT_ID":"50167","PERIOD":"95.438","EPHEMERIS_TYPE":"0"},{"ARG_OF_PERICENTER":"57.1576","MEAN_ANOMALY":"302.9697","DECAY_DATE":null,"MEAN_ELEMENT_THEORY":"SGP4","MEAN_MOTION_DOT":"0.00000908","MEAN_MOTION":"15.08839626","REF_FRAME":"TEME","FILE":"3915766","CLASSIFICATION_TYPE":"U","COUNTRY_CODE":"US","OBJECT_TYPE":"PAYLOAD","RCS_SIZE":"LARGE","NORAD_CAT_ID":"50168","PERIOD":"95.438","EPHEMERIS_TYPE":"0","SEMIMAJOR_AXIS":"6917.882","PERIAPSIS":"537.723","OBJECT_NAME":"STARLINK-3296","ECCENTRICITY":"0.00029250","RA_OF_ASC_NODE":"152.2985","CENTER_NAME":"EARTH","TLE_LINE2":"2 50168  53.2134 152.2985 0002925  57.1576 302.9697 15.08839626 82476","APOAPSIS":"541.770","SITE":"AFWTR","LAUNCH_DATE":"2021-12-18","TLE_LINE1":"1 50168U 21125N   23143.75186290  .00000908  00000-0  75203-4 0  9990","ELEMENT_SET_NO":"999","EPOCH":"2023-05-23T18:02:40.954560","TIME_SYSTEM":"UTC","OBJECT_ID":"2021-125N","INCLINATION":"53.2134","REV_AT_EPOCH":"8247","GP_ID":"232404237","BSTAR":"0.00007520300000","MEAN_MOTION_DDOT":"0.0000000000000"},{"ARG_OF_PERICENTER":"91.2993","MEAN_ANOMALY":"268.8122","MEAN_MOTION":"15.08835696","MEAN_MOTION_DOT":"0.00000985","REF_FRAME":"TEME","DECAY_DATE":null,"MEAN_ELEMENT_THEORY":"SGP4","FILE":"3915766","CLASSIFICATION_TYPE":"U","OBJECT_TYPE":"PAYLOAD","COUNTRY_CODE":"US","RCS_SIZE":"LARGE","EPHEMERIS_TYPE":"0","NORAD_CAT_ID":"50169","PERIOD":"95.438","SEMIMAJOR_AXIS":"6917.894","ECCENTRICITY":"0.00010720","PERIAPSIS":"539.017","OBJECT_NAME":"STARLINK-3301","RA_OF_ASC_NODE":"152.4185","APOAPSIS":"540.500","SITE":"AFWTR","CENTER_NAME":"EARTH","TLE_LINE2":"2 50169  53.2153 152.4185 0001072  91.2993 268.8122 15.08835696 82472","LAUNCH_DATE":"2021-12-18","TLE_LINE1":"1 50169U 21125P   23143.72242100  .00000985  00000-0  79958-4 0  9997","TIME_SYSTEM":"UTC","ELEMENT_SET_NO":"999","EPOCH":"2023-05-23T17:20:17.174400","OBJECT_ID":"2021-125P","REV_AT_EPOCH":"8247","INCLINATION":"53.2153","GP_ID":"232402486","BSTAR":"0.00007995800000","MEAN_MOTION_DDOT":"0.0000000000000"},{"MEAN_ANOMALY":"270.2309","ARG_OF_PERICENTER":"89.8812","FILE":"3915766","DECAY_DATE":null,"MEAN_ELEMENT_THEORY":"SGP4","MEAN_MOTION":"15.08835296","MEAN_MOTION_DOT":"0.00000081","REF_FRAME":"TEME","PERIOD":"95.438","NORAD_CAT_ID":"50170","EPHEMERIS_TYPE":"0","CLASSIFICATION_TYPE":"U","COUNTRY_CODE":"US","OBJECT_TYPE":"PAYLOAD","RCS_SIZE":"LARGE","PERIAPSIS":"538.984","OBJECT_NAME":"STARLINK-3245","ECCENTRICITY":"0.00011220","SEMIMAJOR_AXIS":"6917.895","CENTER_NAME":"EARTH","TLE_LINE2":"2 50170  53.2171 152.3158 0001122  89.8812 270.2309 15.08835296 82461","APOAPSIS":"540.536","SITE":"AFWTR","RA_OF_ASC_NODE":"152.3158","TLE_LINE1":"1 50170U 21125Q   23143.74450326  .00000081  00000-0  23171-4 0  9995","LAUNCH_DATE":"2021-12-18","REV_AT_EPOCH":"8246","OBJECT_ID":"2021-125Q","INCLINATION":"53.2171","ELEMENT_SET_NO":"999","EPOCH":"2023-05-23T17:52:05.081664","TIME_SYSTEM":"UTC","MEAN_MOTION_DDOT":"0.0000000000000","GP_ID":"232402736","BSTAR":"0.00002317100000"}];
